[{"OBJECT_NAME":"FENGYUN 1C DEB","OBJECT_ID":"1999-025DYA","EPOCH":"2026-03-25T13:15:05.364288","MEAN_MOTION":13.54781806,"ECCENTRICITY":0.0333063,"INCLINATION":97.4286,"RA_OF_ASC_NODE":195.3381,"ARG_OF_PERICENTER":246.7863,"MEAN_ANOMALY":109.7884,"EPHEMERIS_TYPE":0,"CLASSIFICATION_TYPE":"U","NORAD_CAT_ID":36656,"ELEMENT_SET_NO":999,"REV_AT_EPOCH":60237,"BSTAR":0.0011881953,"MEAN_MOTION_DOT":1.132e-5,"MEAN_MOTION_DDOT":0},{"OBJECT_NAME":"FENGYUN 1C DEB","OBJECT_ID":"1999-025DYB","EPOCH":"2026-03-31T22:37:45.314112","MEAN_MOTION":14.66588948,"ECCENTRICITY":0.01045269,"INCLINATION":99.425,"RA_OF_ASC_NODE":262.8245,"ARG_OF_PERICENTER":95.4107,"MEAN_ANOMALY":265.9028,"EPHEMERIS_TYPE":0,"CLASSIFICATION_TYPE":"U","NORAD_CAT_ID":36657,"ELEMENT_SET_NO":999,"REV_AT_EPOCH":67856,"BSTAR":0.00058327699,"MEAN_MOTION_DOT":3.447e-5,"MEAN_MOTION_DDOT":0},{"OBJECT_NAME":"FENGYUN 1C DEB","OBJECT_ID":"1999-025DYD","EPOCH":"2026-03-31T06:31:28.625376","MEAN_MOTION":13.87575863,"ECCENTRICITY":0.0136264,"INCLINATION":99.8534,"RA_OF_ASC_NODE":104.6554,"ARG_OF_PERICENTER":148.8084,"MEAN_ANOMALY":212.1247,"EPHEMERIS_TYPE":0,"CLASSIFICATION_TYPE":"U","NORAD_CAT_ID":36659,"ELEMENT_SET_NO":999,"REV_AT_EPOCH":61930,"BSTAR":0.00065696,"MEAN_MOTION_DOT":7.88e-6,"MEAN_MOTION_DDOT":0},{"OBJECT_NAME":"FENGYUN 1C DEB","OBJECT_ID":"1999-025DYJ","EPOCH":"2026-04-03T07:38:17.261376","MEAN_MOTION":14.18015105,"ECCENTRICITY":0.0173242,"INCLINATION":98.5933,"RA_OF_ASC_NODE":119.491,"ARG_OF_PERICENTER":137.8767,"MEAN_ANOMALY":223.5875,"EPHEMERIS_TYPE":0,"CLASSIFICATION_TYPE":"U","NORAD_CAT_ID":36664,"ELEMENT_SET_NO":999,"REV_AT_EPOCH":65332,"BSTAR":0.00014177,"MEAN_MOTION_DOT":2.95e-6,"MEAN_MOTION_DDOT":0},{"OBJECT_NAME":"FENGYUN 1C DEB","OBJECT_ID":"1999-025DYN","EPOCH":"2026-04-04T06:57:22.074048","MEAN_MOTION":14.15701876,"ECCENTRICITY":0.00497349,"INCLINATION":98.6103,"RA_OF_ASC_NODE":105.828,"ARG_OF_PERICENTER":262.7144,"MEAN_ANOMALY":96.8376,"EPHEMERIS_TYPE":0,"CLASSIFICATION_TYPE":"U","NORAD_CAT_ID":36668,"ELEMENT_SET_NO":999,"REV_AT_EPOCH":59010,"BSTAR":0.00079591015,"MEAN_MOTION_DOT":1.537e-5,"MEAN_MOTION_DDOT":0},{"OBJECT_NAME":"FENGYUN 1C DEB","OBJECT_ID":"1999-025DYY","EPOCH":"2026-04-01T04:25:42.878784","MEAN_MOTION":14.38291599,"ECCENTRICITY":0.01512356,"INCLINATION":98.3056,"RA_OF_ASC_NODE":74.9141,"ARG_OF_PERICENTER":24.1798,"MEAN_ANOMALY":336.6393,"EPHEMERIS_TYPE":0,"CLASSIFICATION_TYPE":"U","NORAD_CAT_ID":36678,"ELEMENT_SET_NO":999,"REV_AT_EPOCH":66562,"BSTAR":0.00045538969,"MEAN_MOTION_DOT":1.536e-5,"MEAN_MOTION_DDOT":0},{"OBJECT_NAME":"FENGYUN 1C DEB","OBJECT_ID":"1999-025DYZ","EPOCH":"2026-04-04T05:57:26.783424","MEAN_MOTION":14.04868781,"ECCENTRICITY":0.0086018,"INCLINATION":98.8434,"RA_OF_ASC_NODE":92.4582,"ARG_OF_PERICENTER":137.946,"MEAN_ANOMALY":222.8352,"EPHEMERIS_TYPE":0,"CLASSIFICATION_TYPE":"U","NORAD_CAT_ID":36679,"ELEMENT_SET_NO":999,"REV_AT_EPOCH":26128,"BSTAR":0.00047254737,"MEAN_MOTION_DOT":7.42e-6,"MEAN_MOTION_DDOT":0},{"OBJECT_NAME":"FENGYUN 1C DEB","OBJECT_ID":"1999-025DZA","EPOCH":"2026-04-03T05:27:59.056704","MEAN_MOTION":14.18943893,"ECCENTRICITY":0.01875496,"INCLINATION":98.5584,"RA_OF_ASC_NODE":86.4882,"ARG_OF_PERICENTER":287.3938,"MEAN_ANOMALY":136.581,"EPHEMERIS_TYPE":0,"CLASSIFICATION_TYPE":"U","NORAD_CAT_ID":36680,"ELEMENT_SET_NO":999,"REV_AT_EPOCH":65878,"BSTAR":0.00072685239,"MEAN_MOTION_DOT":1.76e-5,"MEAN_MOTION_DDOT":0},{"OBJECT_NAME":"FENGYUN 1C DEB","OBJECT_ID":"1999-025DZB","EPOCH":"2026-04-01T16:59:18.320352","MEAN_MOTION":14.10542545,"ECCENTRICITY":0.00452568,"INCLINATION":98.7029,"RA_OF_ASC_NODE":91.782,"ARG_OF_PERICENTER":38.2568,"MEAN_ANOMALY":322.18,"EPHEMERIS_TYPE":0,"CLASSIFICATION_TYPE":"U","NORAD_CAT_ID":36681,"ELEMENT_SET_NO":999,"REV_AT_EPOCH":74308,"BSTAR":0.00075156079,"MEAN_MOTION_DOT":1.31e-5,"MEAN_MOTION_DDOT":0},{"OBJECT_NAME":"FENGYUN 1C DEB","OBJECT_ID":"1999-025DZC","EPOCH":"2026-04-01T03:47:37.250592","MEAN_MOTION":13.70440862,"ECCENTRICITY":0.02340004,"INCLINATION":98.48,"RA_OF_ASC_NODE":347.2045,"ARG_OF_PERICENTER":345.0092,"MEAN_ANOMALY":14.4202,"EPHEMERIS_TYPE":0,"CLASSIFICATION_TYPE":"U","NORAD_CAT_ID":36682,"ELEMENT_SET_NO":999,"REV_AT_EPOCH":62891,"BSTAR":0.0014764853,"MEAN_MOTION_DOT":1.547e-5,"MEAN_MOTION_DDOT":0},{"OBJECT_NAME":"FENGYUN 1C DEB","OBJECT_ID":"1999-025DZE","EPOCH":"2026-04-02T14:28:06.907872","MEAN_MOTION":15.16798443,"ECCENTRICITY":0.00104545,"INCLINATION":99.4442,"RA_OF_ASC_NODE":214.4333,"ARG_OF_PERICENTER":105.4825,"MEAN_ANOMALY":254.7557,"EPHEMERIS_TYPE":0,"CLASSIFICATION_TYPE":"U","NORAD_CAT_ID":36684,"ELEMENT_SET_NO":999,"REV_AT_EPOCH":67569,"BSTAR":0.008668852,"MEAN_MOTION_DOT":0.00174493,"MEAN_MOTION_DDOT":0},{"OBJECT_NAME":"FENGYUN 1C DEB","OBJECT_ID":"1999-025DZG","EPOCH":"2026-04-04T07:44:20.678784","MEAN_MOTION":14.79180033,"ECCENTRICITY":0.01016271,"INCLINATION":98.9975,"RA_OF_ASC_NODE":303.9074,"ARG_OF_PERICENTER":60.4706,"MEAN_ANOMALY":300.6588,"EPHEMERIS_TYPE":0,"CLASSIFICATION_TYPE":"U","NORAD_CAT_ID":36686,"ELEMENT_SET_NO":999,"REV_AT_EPOCH":67515,"BSTAR":0.0014666271,"MEAN_MOTION_DOT":0.00011822,"MEAN_MOTION_DDOT":0},{"OBJECT_NAME":"FENGYUN 1C DEB","OBJECT_ID":"1999-025DZH","EPOCH":"2026-03-30T12:02:04.738272","MEAN_MOTION":14.04618057,"ECCENTRICITY":0.00901832,"INCLINATION":98.7037,"RA_OF_ASC_NODE":176.5916,"ARG_OF_PERICENTER":323.4217,"MEAN_ANOMALY":36.0814,"EPHEMERIS_TYPE":0,"CLASSIFICATION_TYPE":"U","NORAD_CAT_ID":36687,"ELEMENT_SET_NO":999,"REV_AT_EPOCH":64235,"BSTAR":0.00016342274,"MEAN_MOTION_DOT":2.28e-6,"MEAN_MOTION_DDOT":0},{"OBJECT_NAME":"FENGYUN 1C DEB","OBJECT_ID":"1999-025DZK","EPOCH":"2026-04-04T15:38:16.574208","MEAN_MOTION":13.75002713,"ECCENTRICITY":0.0309562,"INCLINATION":98.4763,"RA_OF_ASC_NODE":341.1149,"ARG_OF_PERICENTER":352.0679,"MEAN_ANOMALY":7.564,"EPHEMERIS_TYPE":0,"CLASSIFICATION_TYPE":"U","NORAD_CAT_ID":36689,"ELEMENT_SET_NO":999,"REV_AT_EPOCH":59764,"BSTAR":0.0028834,"MEAN_MOTION_DOT":3.864e-5,"MEAN_MOTION_DDOT":0},{"OBJECT_NAME":"FENGYUN 1C DEB","OBJECT_ID":"1999-025DZN","EPOCH":"2026-04-01T12:03:15.486048","MEAN_MOTION":13.93628759,"ECCENTRICITY":0.01152141,"INCLINATION":99.9934,"RA_OF_ASC_NODE":11.3539,"ARG_OF_PERICENTER":82.6243,"MEAN_ANOMALY":278.7991,"EPHEMERIS_TYPE":0,"CLASSIFICATION_TYPE":"U","NORAD_CAT_ID":36692,"ELEMENT_SET_NO":999,"REV_AT_EPOCH":61334,"BSTAR":0.00058867246,"MEAN_MOTION_DOT":7.67e-6,"MEAN_MOTION_DDOT":0},{"OBJECT_NAME":"FENGYUN 1C DEB","OBJECT_ID":"1999-025DZR","EPOCH":"2026-04-02T16:33:04.920192","MEAN_MOTION":14.44127073,"ECCENTRICITY":0.02558575,"INCLINATION":98.2357,"RA_OF_ASC_NODE":75.5163,"ARG_OF_PERICENTER":152.9288,"MEAN_ANOMALY":208.5517,"EPHEMERIS_TYPE":0,"CLASSIFICATION_TYPE":"U","NORAD_CAT_ID":36695,"ELEMENT_SET_NO":999,"REV_AT_EPOCH":91169,"BSTAR":0.00017659481,"MEAN_MOTION_DOT":8.5e-6,"MEAN_MOTION_DDOT":0}]
