FENGYUN 1C DEB          
1 36656U 99025DYA 26084.55214542  .00001132  00000+0  11882-2 0  9997
2 36656  97.4286 195.3381 0333063 246.7863 109.7884 13.54781806602376
FENGYUN 1C DEB          
1 36657U 99025DYB 26090.94288558  .00003447  00000+0  58328-3 0  9994
2 36657  99.4250 262.8245 0104526  95.4107 265.9028 14.66588948678564
FENGYUN 1C DEB          
1 36659U 99025DYD 26090.27185909  .00000788  00000+0  65696-3 0  9999
2 36659  99.8534 104.6554 0136264 148.8084 212.1247 13.87575863619300
FENGYUN 1C DEB          
1 36664U 99025DYJ 26093.31825534  .00000295  00000+0  14177-3 0  9999
2 36664  98.5933 119.4910 0173242 137.8767 223.5875 14.18015105653324
FENGYUN 1C DEB          
1 36668U 99025DYN 26094.28983882  .00001537  00000+0  79591-3 0  9992
2 36668  98.6103 105.8280 0049734 262.7144  96.8376 14.15701876590109
FENGYUN 1C DEB          
1 36678U 99025DYY 26091.18452406  .00001536  00000+0  45539-3 0  9996
2 36678  98.3056  74.9141 0151235  24.1798 336.6393 14.38291599665626
FENGYUN 1C DEB          
1 36679U 99025DYZ 26094.24822666  .00000742  00000+0  47255-3 0  9991
2 36679  98.8434  92.4582 0086018 137.9460 222.8352 14.04868781261282
FENGYUN 1C DEB          
1 36680U 99025DZA 26093.22776686  .00001760  00000+0  72685-3 0  9996
2 36680  98.5584  86.4882 0187549 287.3938 136.5810 14.18943893658782
FENGYUN 1C DEB          
1 36681U 99025DZB 26091.70785093  .00001310  00000+0  75156-3 0  9997
2 36681  98.7029  91.7820 0045256  38.2568 322.1800 14.10542545743081
FENGYUN 1C DEB          
1 36682U 99025DZC 26091.15807003  .00001547  00000+0  14765-2 0  9993
2 36682  98.4800 347.2045 0234000 345.0092  14.4202 13.70440862628917
FENGYUN 1C DEB          
1 36684U 99025DZE 26092.60285773  .00174493  00000+0  86689-2 0  9995
2 36684  99.4442 214.4333 0010454 105.4825 254.7557 15.16798443675696
FENGYUN 1C DEB          
1 36686U 99025DZG 26094.32246156  .00011822  00000+0  14666-2 0  9992
2 36686  98.9975 303.9074 0101627  60.4706 300.6588 14.79180033675154
FENGYUN 1C DEB          
1 36687U 99025DZH 26089.50144373  .00000228  00000+0  16342-3 0  9997
2 36687  98.7037 176.5916 0090183 323.4217  36.0814 14.04618057642352
FENGYUN 1C DEB          
1 36689U 99025DZK 26094.65158072  .00003864  00000+0  28834-2 0  9999
2 36689  98.4763 341.1149 0309562 352.0679   7.5640 13.75002713597643
FENGYUN 1C DEB          
1 36692U 99025DZN 26091.50226257  .00000767  00000+0  58867-3 0  9994
2 36692  99.9934  11.3539 0115214  82.6243 278.7991 13.93628759613345
FENGYUN 1C DEB          
1 36695U 99025DZR 26092.68964028  .00000850  00000+0  17659-3 0  9999
2 36695  98.2357  75.5163 0255857 152.9288 208.5517 14.44127073911696
